{"type": "FeatureCollection", "features": [ {"type": "Feature", "properties": {"norad_id": 44804, "name": "CARTOSAT-3", "group": "resource", "lat": 46.87550149527648, "lon": -110.63733781860718, "alt_km": 505.1303801766644, "timestamp": "2025-12-27T22:26:48.270744+00:00", "meta": {"OBJECT_NAME": "CARTOSAT-3", "OBJECT_ID": "2019-081A", "EPOCH": "2025-12-27T12:22:56.252640", "MEAN_MOTION": 15.1928343, "ECCENTRICITY": 0.0013457, "INCLINATION": 97.4561, "RA_OF_ASC_NODE": 60.9106, "ARG_OF_PERICENTER": 36.3564, "MEAN_ANOMALY": 323.8582, "EPHEMERIS_TYPE": 0, "CLASSIFICATION_TYPE": "U", "NORAD_CAT_ID": 44804, "ELEMENT_SET_NO": 999, "REV_AT_EPOCH": 33740, "BSTAR": 0.00038159, "MEAN_MOTION_DOT": 8.003e-05, "MEAN_MOTION_DDOT": 0}, "tle": {"line1": "1 44804U 19081A   25361.51592885  .00008003  00000+0  38159-3 0  9998", "line2": "2 44804  97.4561  60.9106 0013457  36.3564 323.8582 15.19283430337407"}}, "geometry": {"type": "Point", "coordinates": [-110.63733781860718, 46.87550149527648]}}, {"type": "Feature", "properties": {"norad_id": 44819, "name": "GAOFEN-12 01", "group": "resource", "lat": -67.91224573512648, "lon": 27.592676021867664, "alt_km": 635.3192599219346, "timestamp": "2025-12-27T22:26:48.270754+00:00", "meta": {"OBJECT_NAME": "GAOFEN-12 01", "OBJECT_ID": "2019-082A", "EPOCH": "2025-12-27T13:01:41.052000", "MEAN_MOTION": 14.80674675, "ECCENTRICITY": 0.0002392, "INCLINATION": 97.8125, "RA_OF_ASC_NODE": 7.4353, "ARG_OF_PERICENTER": 171.1747, "MEAN_ANOMALY": 188.9508, "EPHEMERIS_TYPE": 0, "CLASSIFICATION_TYPE": "U", "NORAD_CAT_ID": 44819, "ELEMENT_SET_NO": 999, "REV_AT_EPOCH": 32869, "BSTAR": 8.4439e-05, "MEAN_MOTION_DOT": 5.98e-06, "MEAN_MOTION_DDOT": 0}, "tle": {"line1": "1 44819U 19082A   25361.54283625  .00000598  00000+0  84439-4 0  9991", "line2": "2 44819  97.8125   7.4353 0002392 171.1747 188.9508 14.80674675328691"}}, "geometry": {"type": "Point", "coordinates": [27.592676021867664, -67.91224573512648]}}, {"type": "Feature", "properties": {"norad_id": 44873, "name": "CSG-1", "group": "resource", "lat": 55.94954404577746, "lon": 14.857490809749565, "alt_km": 616.3890002301268, "timestamp": "2025-12-27T22:26:48.270764+00:00", "meta": {"OBJECT_NAME": "CSG-1", "OBJECT_ID": "2019-092A", "EPOCH": "2025-12-27T12:10:17.771232", "MEAN_MOTION": 14.82164849, "ECCENTRICITY": 0.0001443, "INCLINATION": 97.8805, "RA_OF_ASC_NODE": 182.609, "ARG_OF_PERICENTER": 84.9524, "MEAN_ANOMALY": 275.1854, "EPHEMERIS_TYPE": 0, "CLASSIFICATION_TYPE": "U", "NORAD_CAT_ID": 44873, "ELEMENT_SET_NO": 999, "REV_AT_EPOCH": 32604, "BSTAR": 9.9569e-05, "MEAN_MOTION_DOT": 7.41e-06, "MEAN_MOTION_DDOT": 0}, "tle": {"line1": "1 44873U 19092A   25361.50715013  .00000741  00000+0  99569-4 0  9999", "line2": "2 44873  97.8805 182.6090 0001443  84.9524 275.1854 14.82164849326049"}}, "geometry": {"type": "Point", "coordinates": [14.857490809749565, 55.94954404577746]}}, {"type": "Feature", "properties": {"norad_id": 46277, "name": "NEMO-HD", "group": "resource", "lat": -46.6074576799118, "lon": -126.86442401647828, "alt_km": 451.70274689707094, "timestamp": "2025-12-27T22:26:48.270774+00:00", "meta": {"OBJECT_NAME": "NEMO-HD", "OBJECT_ID": "2020-061F", "EPOCH": "2025-12-27T12:06:41.484384", "MEAN_MOTION": 15.4063543, "ECCENTRICITY": 9.44e-05, "INCLINATION": 97.2188, "RA_OF_ASC_NODE": 60.4153, "ARG_OF_PERICENTER": 55.6577, "MEAN_ANOMALY": 304.4759, "EPHEMERIS_TYPE": 0, "CLASSIFICATION_TYPE": "U", "NORAD_CAT_ID": 46277, "ELEMENT_SET_NO": 999, "REV_AT_EPOCH": 29551, "BSTAR": 0.00029774, "MEAN_MOTION_DOT": 0.00012053, "MEAN_MOTION_DDOT": 0}, "tle": {"line1": "1 46277U 20061F   25361.50464681  .00012053  00000+0  29774-3 0  9998", "line2": "2 46277  97.2188  60.4153 0000944  55.6577 304.4759 15.40635430295519"}}, "geometry": {"type": "Point", "coordinates": [-126.86442401647828, -46.6074576799118]}}, {"type": "Feature", "properties": {"norad_id": 46984, "name": "SENTINEL-6A", "group": "resource", "lat": -32.28898172964953, "lon": 114.4292142764677, "alt_km": 1339.3835010384582, "timestamp": "2025-12-27T22:26:48.270784+00:00", "meta": {"OBJECT_NAME": "SENTINEL-6A", "OBJECT_ID": "2020-086A", "EPOCH": "2025-12-27T11:23:24.082656", "MEAN_MOTION": 12.80930854, "ECCENTRICITY": 0.0007773, "INCLINATION": 66.0404, "RA_OF_ASC_NODE": 131.7036, "ARG_OF_PERICENTER": 269.4721, "MEAN_ANOMALY": 90.5403, "EPHEMERIS_TYPE": 0, "CLASSIFICATION_TYPE": "U", "NORAD_CAT_ID": 46984, "ELEMENT_SET_NO": 999, "REV_AT_EPOCH": 23833, "BSTAR": 9.265e-05, "MEAN_MOTION_DOT": -4e-07, "MEAN_MOTION_DDOT": 0}, "tle": {"line1": "1 46984U 20086A   25361.47458429 -.00000040  00000+0  92650-4 0  9997", "line2": "2 46984  66.0404 131.7036 0007773 269.4721  90.5403 12.80930854238339"}}, "geometry": {"type": "Point", "coordinates": [114.4292142764677, -32.28898172964953]}}, {"type": "Feature", "properties": {"norad_id": 48079, "name": "GAOFEN-12 02", "group": "resource", "lat": -56.018025706103714, "lon": 7.8900043917423925, "alt_km": 635.6854910806996, "timestamp": "2025-12-27T22:26:48.270793+00:00", "meta": {"OBJECT_NAME": "GAOFEN-12 02", "OBJECT_ID": "2021-026A", "EPOCH": "2025-12-27T12:58:19.433280", "MEAN_MOTION": 14.80692968, "ECCENTRICITY": 0.0003519, "INCLINATION": 97.9859, "RA_OF_ASC_NODE": 355.4761, "ARG_OF_PERICENTER": 71.4335, "MEAN_ANOMALY": 288.7259, "EPHEMERIS_TYPE": 0, "CLASSIFICATION_TYPE": "U", "NORAD_CAT_ID": 48079, "ELEMENT_SET_NO": 999, "REV_AT_EPOCH": 25636, "BSTAR": 8.7931e-05, "MEAN_MOTION_DOT": 6.23e-06, "MEAN_MOTION_DDOT": 0}, "tle": {"line1": "1 48079U 21026A   25361.54050270  .00000623  00000+0  87931-4 0  9991", "line2": "2 48079  97.9859 355.4761 0003519  71.4335 288.7259 14.80692968256365"}}, "geometry": {"type": "Point", "coordinates": [7.8900043917423925, -56.018025706103714]}}, {"type": "Feature", "properties": {"norad_id": 48268, "name": "PLEIADES NEO 3", "group": "resource", "lat": 62.9752708938537, "lon": 58.373521042353524, "alt_km": 617.0144402032174, "timestamp": "2025-12-27T22:26:48.270803+00:00", "meta": {"OBJECT_NAME": "PLEIADES NEO 3", "OBJECT_ID": "2021-034A", "EPOCH": "2025-12-27T12:26:02.391072", "MEAN_MOTION": 14.8167572, "ECCENTRICITY": 0.0001376, "INCLINATION": 97.8941, "RA_OF_ASC_NODE": 73.747, "ARG_OF_PERICENTER": 87.8524, "MEAN_ANOMALY": 272.2846, "EPHEMERIS_TYPE": 0, "CLASSIFICATION_TYPE": "U", "NORAD_CAT_ID": 48268, "ELEMENT_SET_NO": 999, "REV_AT_EPOCH": 25223, "BSTAR": 8.899e-05, "MEAN_MOTION_DOT": 6.48e-06, "MEAN_MOTION_DDOT": 0}, "tle": {"line1": "1 48268U 21034A   25361.51808323  .00000648  00000+0  88990-4 0  9990", "line2": "2 48268  97.8941  73.7470 0001376  87.8524 272.2846 14.81675720252233"}}, "geometry": {"type": "Point", "coordinates": [58.373521042353524, 62.9752708938537]}}, {"type": "Feature", "properties": {"norad_id": 49070, "name": "PLEIADES NEO 4", "group": "resource", "lat": -63.134226471116925, "lon": -121.74214253997906, "alt_km": 632.0968887085919, "timestamp": "2025-12-27T22:26:48.270813+00:00", "meta": {"OBJECT_NAME": "PLEIADES NEO 4", "OBJECT_ID": "2021-073E", "EPOCH": "2025-12-27T11:37:24.105792", "MEAN_MOTION": 14.8167299, "ECCENTRICITY": 0.0001308, "INCLINATION": 97.894, "RA_OF_ASC_NODE": 73.7095, "ARG_OF_PERICENTER": 88.0724, "MEAN_ANOMALY": 272.0639, "EPHEMERIS_TYPE": 0, "CLASSIFICATION_TYPE": "U", "NORAD_CAT_ID": 49070, "ELEMENT_SET_NO": 999, "REV_AT_EPOCH": 23594, "BSTAR": 1.8665e-05, "MEAN_MOTION_DOT": 9.5e-07, "MEAN_MOTION_DDOT": 0}, "tle": {"line1": "1 49070U 21073E   25361.48430678  .00000095  00000+0  18665-4 0  9993", "line2": "2 49070  97.8940  73.7095 0001308  88.0724 272.0639 14.81672990235940"}}, "geometry": {"type": "Point", "coordinates": [-121.74214253997906, -63.134226471116925]}}, {"type": "Feature", "properties": {"norad_id": 49260, "name": "LANDSAT 9", "group": "resource", "lat": -0.9024413144540352, "lon": 69.95466912783094, "alt_km": 705.6363869270417, "timestamp": "2025-12-27T22:26:48.270823+00:00", "meta": {"OBJECT_NAME": "LANDSAT 9", "OBJECT_ID": "2021-088A", "EPOCH": "2025-12-27T04:19:19.840800", "MEAN_MOTION": 14.57112985, "ECCENTRICITY": 0.00011037, "INCLINATION": 98.2075, "RA_OF_ASC_NODE": 69.0804, "ARG_OF_PERICENTER": 93.7467, "MEAN_ANOMALY": 266.3858, "EPHEMERIS_TYPE": 0, "CLASSIFICATION_TYPE": "U", "NORAD_CAT_ID": 49260, "ELEMENT_SET_NO": 999, "REV_AT_EPOCH": 22595, "BSTAR": 0.00012601018, "MEAN_MOTION_DOT": 5.23e-06, "MEAN_MOTION_DDOT": 0}, "tle": {"line1": "1 49260U 21088A   25361.18009075  .00000523  00000+0  12601-3 0  9999", "line2": "2 49260  98.2075  69.0804 0001103  93.7467 266.3858 14.57112985225956"}}, "geometry": {"type": "Point", "coordinates": [69.95466912783094, -0.9024413144540352]}}, {"type": "Feature", "properties": {"norad_id": 51444, "name": "CSG-2", "group": "resource", "lat": -56.165543554781856, "lon": -165.0451536774183, "alt_km": 630.3819797057458, "timestamp": "2025-12-27T22:26:48.270832+00:00", "meta": {"OBJECT_NAME": "CSG-2", "OBJECT_ID": "2022-008A", "EPOCH": "2025-12-27T12:58:55.221888", "MEAN_MOTION": 14.82160029, "ECCENTRICITY": 0.0001462, "INCLINATION": 97.8809, "RA_OF_ASC_NODE": 182.6409, "ARG_OF_PERICENTER": 85.3058, "MEAN_ANOMALY": 274.8322, "EPHEMERIS_TYPE": 0, "CLASSIFICATION_TYPE": "U", "NORAD_CAT_ID": 51444, "ELEMENT_SET_NO": 999, "REV_AT_EPOCH": 21116, "BSTAR": 0.00011681, "MEAN_MOTION_DOT": 8.78e-06, "MEAN_MOTION_DDOT": 0}, "tle": {"line1": "1 51444U 22008A   25361.54091692  .00000878  00000+0  11681-3 0  9995", "line2": "2 51444  97.8809 182.6409 0001462  85.3058 274.8322 14.82160029211165"}}, "geometry": {"type": "Point", "coordinates": [-165.0451536774183, -56.165543554781856]}}]}